ZY-1 02D                
1 44528U 19059A   25353.78890402  .00000093  00000+0  46932-4 0  9992
2 44528  98.3466  56.4086 0000819   3.2898 356.8294 14.35435723328601
TAURUS-1 (JINNIUZUO 1)  
1 44530U 19059C   25353.71790058  .00006677  00000+0  11401-2 0  9999
2 44530  98.6222 142.9561 0009198 153.3018 206.8661 14.69255504332269
ZHUHAI-1 03B            
1 44536U 19060C   25353.72401755  .00019512  00000+0  45767-3 0  9996
2 44536  97.5343 138.6233 0010077 251.5400 108.4751 15.42053474348559
ZHUHAI-1 03C            
1 44537U 19060D   25353.73029220  .00046927  00000+0  63207-3 0  9990
2 44537  97.5534 145.4488 0013688 212.3321 147.7096 15.57600158348986
ZHUHAI-1 03D            
1 44538U 19060E   25353.74130579  .00018020  00000+0  47260-3 0  9996
2 44538  97.5189 132.2821 0009473 234.2403 125.7961 15.38677841348382
ZHUHAI-1 03E            
1 44539U 19060F   25353.75404980  .00013518  00000+0  42103-3 0  9996
2 44539  97.5390 133.7280 0006424 309.1004  50.9666 15.33381308348199
ATLAS 5 CENTAUR DEB     
1 44694U 18079BG  25351.24488872 -.00000103  00000+0  00000+0 0  9994
2 44694  13.4273  54.1575 4748407 269.7732  37.8003  1.77426538 43333
GAOFEN-7                
1 44703U 19072A   25353.84281647  .00003606  00000+0  16347-3 0  9993
2 44703  97.2700  56.8019 0013570 316.3601  43.6561 15.21380505340372
JILIN-1 GAOFEN 2A       
1 44777U 19075A   25353.79202463  .00009537  00000+0  29653-3 0  9993
2 44777  97.5150  69.0129 0007447  13.8257 346.3187 15.33523001337337
NINGXIA-1 1             
1 44779U 19076A   25353.82373318 -.00000001  00000+0  84245-4 0  9995
2 44779  45.0055 261.3775 0011336  23.1581 336.9762 14.02004083312685
NINGXIA-1 5             
1 44783U 19076E   25353.83717824 -.00000032  00000+0  63714-4 0  9997
2 44783  45.0060 260.6635 0011397  11.7756 348.3343 14.01988388312609
KL-ALPHA A              
1 44785U 19077A   25353.81393057  .00000028  00000+0  22132-4 0  9999
2 44785  88.9169 242.2849 0009385 276.2533  83.7552 13.56021604301423
CARTOSAT-3              
1 44804U 19081A   25353.80981293  .00002456  00000+0  11966-3 0  9999
2 44804  97.4581  53.3035 0014015  61.1173 299.1466 15.19207120336237
JILIN-1 GAOFEN 2B       
1 44836U 19086A   25353.83075499  .00004948  00000+0  24578-3 0  9995
2 44836  97.5114  62.0778 0013942 221.0298 138.9888 15.18051861333254
ANGELS                  
1 44876U 19092D   25353.54723481  .00047874  00000+0  54925-3 0  9999
2 44876  97.4311 198.6356 0005041 125.5141 234.6587 15.61928432334054
TIANQIN 1 (CAS-6)       
1 44879U 19093A   25353.83631360  .00002674  00000+0  25476-3 0  9997
2 44879  97.7954  74.0303 0010201 293.3425  66.6721 14.94205567325252
ETRSS-1                 
1 44880U 19093B   25353.81822149  .00002320  00000+0  22029-3 0  9993
2 44880  97.7966  74.3414 0010712 294.8238  65.1868 14.94464557325250
TIANYAN 01              
1 44881U 19093C   25353.83759819  .00001469  00000+0  17350-3 0  9993
2 44881  97.7759  65.3109 0012778 322.2141  37.8176 14.86120789324776
TIANYAN 02              
1 44882U 19093D   25353.80798037  .00006138  00000+0  46873-3 0  9996
2 44882  97.7980  82.2470 0014641 270.9194  89.0352 15.02260398325653
CBERS 4A                
1 44883U 19093E   25353.85243015  .00000596  00000+0  82330-4 0  9994
2 44883  97.7747  61.6655 0003090  71.2186 288.9362 14.81575682324527
WEILAI 1R               
1 44884U 19093F   25353.84768050  .00003783  00000+0  32010-3 0  9995
2 44884  97.8001  78.6034 0008328 280.4538  79.5745 14.98625498325546
FLORIPASAT-1            
1 44885U 19093G   25353.84201208  .00004816  00000+0  37820-3 0  9995
2 44885  97.8044  82.0694 0009742 312.2343  47.8054 15.01353890325713
SHUNTIAN                
1 44886U 19093H   25353.85546156  .00001986  00000+0  19182-3 0  9997
2 44886  97.8126  78.0263 0010757 305.8793  54.1427 14.93959448325397
2019-093L               
1 44889U 19093L   25353.82139821  .00001838  00000+0  18108-3 0  9997
2 44889  97.7739  69.2216 0010996 289.8722  70.1313 14.93227779325024
ELEKTRO-L 3             
1 44903U 19095A   25353.56771402 -.00000072  00000+0  00000+0 0  9992
2 44903   0.0607 140.2902 0002332 142.1724  86.3436  1.00272090 21907
GONETS-M 14             
1 44905U 19096A   25353.85982060 -.00000065  00000+0 -54249-3 0  9992
2 44905  82.5223 195.7912 0013246 182.6044 177.4969 12.42900671271400
GONETS-M 15             
1 44906U 19096B   25353.80782378 -.00000027  00000+0 -26955-3 0  9999
2 44906  82.5243 196.2544 0015109 206.4674 153.5636 12.42865606271363
GONETS-M 16             
1 44907U 19096C   25353.83701642 -.00000012  00000+0 -15561-3 0  9993
2 44907  82.5189 195.2738 0010616 249.0951 110.8993 12.42885139271350
RS-44 & BREEZE-KM R/B   
1 44909U 19096E   25353.81587961  .00000011  00000+0  13209-5 0  9995
2 44909  82.5215  98.9070 0217299 203.5078 155.5976 12.79746120279408
JILIN-1 KUANFU 01       
1 45016U 20003A   25353.79935816  .00002546  00000+0  16119-3 0  9994
2 45016  97.5245  66.2065 0007571 197.2485 162.8488 15.09855048328253
XINGYUN-2 01            
1 45602U 20028A   25353.91589134  .00002459  00000+0  15190-3 0  9995
2 45602  97.4766 345.1143 0010961  98.8800 261.3671 15.10747223307760
XINGYUN-2 02            
1 45603U 20028B   25353.86626483  .00001200  00000+0  76502-4 0  9997
2 45603  97.5084 358.1200 0011564 159.4894 200.6802 15.10552872307755
HAIYANG-1D              
1 45721U 20036A   25353.81409867  .00000056  00000+0  35295-4 0  9999
2 45721  98.4373 294.5775 0002244 354.5319   5.5841 14.34153392289261
M2 PATHFINDER           
1 45727U 20037E   25353.76839127  .00001613  00000+0  12261-3 0  9993
2 45727  97.8127 178.0700 0013320  45.2706 314.9601 15.03538947298522
GAOFEN DUOMO (GFDM)     
1 45856U 20042A   25353.86460618  .00000511  00000+0  79771-4 0  9994
2 45856  97.8027  55.0384 0010351 296.3432  63.6715 14.76833467294548
ZIYUAN 3-03 (ZY 3-03)   
1 45939U 20051A   25353.89107219  .00002268  00000+0  10434-3 0  9995
2 45939  97.3082  62.1887 0003479 207.5268 152.5784 15.21330406300084
TYVAK-0172              
1 46267U 20059C   25353.18118764  .00030230  00000+0  54184-3 0  9997
2 46267  97.7268 223.8997 0001268  83.8231 276.3164 15.49898834290591
ION-MK01                
1 46274U 20061C   25353.63814022  .00049470  00000+0  43409-3 0  9992
2 46274  97.2179  64.2849 0001146 195.4700 164.6527 15.68701964295038
NEMO-HD                 
1 46277U 20061F   25353.84001414  .00007440  00000+0  18570-3 0  9993
2 46277  97.2205  52.8481 0001429  51.6082 308.5293 15.40465715294338
3CAT-5A                 
1 46292U 20061W   25353.16104603  .00012137  00000+0  30797-3 0  9993
2 46292  97.2698  51.7924 0003324  72.3666 287.7943 15.39813356293262
3CAT-5B                 
1 46293U 20061X   25353.60225900  .00011974  00000+0  29518-3 0  9994
2 46293  97.2703  52.9034 0003492  69.4915 290.6706 15.40698768293344
NAPA-1                  
1 46320U 20061BA  25353.86385191  .00025488  00000+0  46066-3 0  9994
2 46320  97.2768  59.5379 0001012  56.6302 303.5047 15.49689083293818
JILIN-1 GAOFEN 3B       
1 46454U 20065A   25353.82069595  .00047535  00000+0  54851-3 0  9997
2 46454  97.2533  43.5865 0004044  68.4503 291.7186 15.61785446292197
JILIN-1 GAOFEN 3E       
1 46457U 20065D   25353.79818759  .00023060  00000+0  45068-3 0  9997
2 46457  97.2588  39.2455 0018165 101.8838 258.4451 15.47275805291886
JILIN-1 GAOFEN 3F       
1 46458U 20065E   25353.81623850  .00021176  00000+0  42997-3 0  9991
2 46458  97.2525  37.1940 0019530  90.2042 270.1446 15.46152615291864
JILIN-1 GAOFEN 3G       
1 46459U 20065F   25353.79441163  .00025532  00000+0  45360-3 0  9991
2 46459  97.2625  42.0786 0015356   0.6185 359.5083 15.50045332291988
JILIN-1 GAOFEN 3H       
1 46460U 20065G   25353.81676183  .00024180  00000+0  44455-3 0  9990
2 46460  97.2540  39.0670 0007924 286.7176  73.3206 15.49177511291962
JILIN-1 GAOFEN 3J       
1 46462U 20065J   25353.77972499  .00043539  00000+0  54273-3 0  9994
2 46462  97.2565  43.1799 0005089  66.7209 293.4584 15.59774243292165
HAIYANG-2C              
1 46469U 20066A   25353.87472834  .00000165  00000+0  22373-3 0  9995
2 46469  65.9984 301.7319 0014130 262.3648  97.5815 13.83376161264697
HJ-2A                   
1 46478U 20067A   25353.85384617  .00000899  00000+0  13606-3 0  9998
2 46478  97.9012  71.3350 0004336 107.7085 252.4598 14.76536550281796
HJ-2B                   
1 46479U 20067B   25353.82243226  .00000565  00000+0  88199-4 0  9996
2 46479  97.9068  72.1937 0001070  91.6946 268.4387 14.76531239281799
GONETS-M 17             
1 46486U 20068A   25353.85946983  .00000020  00000+0  73803-4 0  9990
2 46486  82.4978  99.0698 0023202  68.8174 291.5382 12.42866025236885
GONETS-M 18             
1 46487U 20068B   25353.82444333 -.00000107  00000+0 -84395-3 0  9995
2 46487  82.4931  98.2796 0020524  65.9434 294.3790 12.42893112236865
GONETS-M 19             
1 46488U 20068C   25353.88180782  .00000023  00000+0  94347-4 0  9991
2 46488  82.4957  98.6593 0014394  80.9873 279.2835 12.42885055236976
DEKART                  
1 46493U 20068H   25353.87407661  .00009033  00000+0  29195-3 0  9992
2 46493  97.8722 345.9906 0009426 189.7101 170.3959 15.32305110288268
NORBI                   
1 46494U 20068J   25353.85989745  .00015974  00000+0  40904-3 0  9991
2 46494  97.8664 350.1839 0008105 169.4026 190.7390 15.39460412288530
SALSAT                  
1 46495U 20068K   25353.48061531  .00006196  00000+0  24069-3 0  9995
2 46495  97.8779 341.1169 0009485 202.4725 157.6098 15.26432785287916
ICEYE-X6                
1 46497U 20068M   25353.88197811  .00002438  00000+0  18525-3 0  9997
2 46497  98.0853 334.2977 0006749 345.7514  14.3519 15.03176164286288
NETSAT-4                
1 46504U 20068U   25353.46861902  .00012452  00000+0  34651-3 0  9994
2 46504  97.8592 343.2218 0004434 230.6975 129.3876 15.36976169288109
